{
    "links": {
        "self": "http://www.neowsapp.com/rest/v1/neo/3669060?api_key=iIulBulltgU6a56xZRHN4H3l9WmuAYTsLGpBGhQ2"
    },
    "id": "3669060",
    "neo_reference_id": "3669060",
    "name": "(2014 HN4)",
    "designation": "2014 HN4",
    "nasa_jpl_url": "http://ssd.jpl.nasa.gov/sbdb.cgi?sstr=3669060",
    "absolute_magnitude_h": 25.9,
    "estimated_diameter": {
        "kilometers": {
            "estimated_diameter_min": 0.0175612318,
            "estimated_diameter_max": 0.0392681082
        },
        "meters": {
            "estimated_diameter_min": 17.561231848,
            "estimated_diameter_max": 39.2681081809
        },
        "miles": {
            "estimated_diameter_min": 0.0109120402,
            "estimated_diameter_max": 0.0244000636
        },
        "feet": {
            "estimated_diameter_min": 57.6155918963,
            "estimated_diameter_max": 128.8323800441
        }
    },
    "is_potentially_hazardous_asteroid": false,
    "close_approach_data": [
        {
            "close_approach_date": "2014-04-14",
            "close_approach_date_full": "2014-Apr-14 07:21",
            "epoch_date_close_approach": 1397460060000,
            "relative_velocity": {
                "kilometers_per_second": "9.4048680245",
                "kilometers_per_hour": "33857.5248881308",
                "miles_per_hour": "21037.749283961"
            },
            "miss_distance": {
                "astronomical": "0.0758908119",
                "lunar": "29.5215258291",
                "kilometers": "11353103.812810653",
                "miles": "7054491.5881588914"
            },
            "orbiting_body": "Earth"
        }
    ],
    "orbital_data": {
        "orbit_id": "12",
        "orbit_determination_date": "2019-07-17 06:10:03",
        "first_observation_date": "2014-04-23",
        "last_observation_date": "2014-04-29",
        "data_arc_in_days": 6,
        "observations_used": 28,
        "orbit_uncertainty": "8",
        "minimum_orbit_intersection": ".0755397",
        "jupiter_tisserand_invariant": "4.434",
        "epoch_osculation": "2456773.5",
        "eccentricity": ".3353481816362342",
        "semi_major_axis": "1.507804179225304",
        "inclination": "14.2660307603764",
        "ascending_node_longitude": "213.710037157539",
        "orbital_period": "676.2633335316467",
        "perihelion_distance": "1.002164789458584",
        "perihelion_argument": "310.1641136422754",
        "aphelion_distance": "2.013443568992025",
        "perihelion_time": "2456724.835190851201",
        "mean_anomaly": "25.90607892649824",
        "mean_motion": ".5323370086028083",
        "equinox": "J2000",
        "orbit_class": {
            "orbit_class_type": "APO",
            "orbit_class_description": "Near-Earth asteroid orbits which cross the Earth’s orbit similar to that of 1862 Apollo",
            "orbit_class_range": "a (semi-major axis) > 1.0 AU; q (perihelion) < 1.017 AU"
        }
    },
    "is_sentry_object": false
}